{"fetched_at":"2026-03-30T06:02:59Z","count":15439,"tles":[{"name":"STARLINK-5431","line1":"1 54792U 22175AL  26087.89621717  .00004086  00000+0  27467-3 0  9994","line2":"2 54792  53.2179 317.5401 0001100  84.5404 275.5713 15.08839408182821","category":"Starlink"}]}